COSMOS 2534 [GLONASS-M] 
1 44299U 19030A   26177.61852613  .00000104  00000+0  00000+0 0  9999
2 44299  64.3693 192.2990 0013569 275.0166 259.5182  2.13102489 55129
BEIDOU-3 IGSO-2         
1 44337U 19035A   26177.85739221 -.00000073  00000+0  00000+0 0  9998
2 44337  55.2494 158.7781 0039592 216.4480 327.7946  1.00263830 25763
NAVSTAR 78 (USA 293)    
1 44506U 19056A   26176.86217744 -.00000105  00000+0  00000+0 0  9996
2 44506  55.6325 330.7975 0062408 197.6705 333.6981  2.00570107 50242
BEIDOU-3 M24            
1 44542U 19061A   26177.37068053  .00000097  00000+0  00000+0 0  9995
2 44542  54.3965 182.4177 0008516 358.5179   1.5103  1.86229234 45962
BEIDOU-3 M23            
1 44543U 19061B   26177.77150073  .00000094  00000+0  00000+0 0  9991
2 44543  54.3955 182.3726 0005830 338.4016 201.8929  1.86227620 45973
EUTELSAT 5 WEST B       
1 44624U 19067A   26177.94982352 -.00000031  00000+0  00000+0 0  9991
2 44624   0.0623   6.0580 0003430  89.3010 156.6393  1.00271638 24538
BEIDOU-3 M22            
1 44793U 19078A   26177.21063068 -.00000101  00000+0  00000+0 0  9992
2 44793  53.9269 299.5096 0006246  51.5881 308.4637  1.86227239 44817
BEIDOU-3 M21            
1 44794U 19078B   26177.35052465 -.00000100  00000+0  00000+0 0  9996
2 44794  53.8996 299.4656 0004077  50.4029 309.6292  1.86227884 44824
COSMOS 2544 [GLONASS-M] 
1 44850U 19088A   26176.94531591 -.00000063  00000+0  00000+0 0  9994
2 44850  65.5707  73.4383 0012923 257.6247 102.2670  2.13102928 50901
BEIDOU-3 M19            
1 44864U 19090A   26177.33707545 -.00000086  00000+0  00000+0 0  9995
2 44864  56.5668  62.4875 0017485 297.5943 250.8226  1.86231653 44402
BEIDOU-3 M20            
1 44865U 19090B   26177.15791703 -.00000087  00000+0  00000+0 0  9996
2 44865  56.5685  62.5279 0015273 312.0808 205.8058  1.86231543 44385
BEIDOU-3 G2             
1 45344U 20017A   26177.91726663 -.00000132  00000+0  00000+0 0  9998
2 45344   2.8839  47.5036 0002541  38.9467 238.8926  1.00272043 23356
COSMOS 2545 [GLONASS-M] 
1 45358U 20018A   26177.14029434 -.00000086  00000+0  00000+0 0  9999
2 45358  64.3492 312.1035 0008760 229.5859 130.3273  2.13102524 48855
BEIDOU-3 G3             
1 45807U 20040A   26177.90135950 -.00000345  00000+0  00000+0 0  9996
2 45807   2.4713  67.4774 0002633 328.8916 313.6758  1.00274583 22163
NAVSTAR 79 (USA 304)    
1 45854U 20041A   26177.71006220 -.00000081  00000+0  00000+0 0  9992
2 45854  56.6762  28.5735 0064531 204.5005 157.1000  2.00558725 44236
GALAXY 30 (G-30)        
1 46114U 20056C   26177.64089442  .00000000  00000+0  00000+0 0  9997
2 46114   0.0274  17.4127 0002294  76.1713 286.8850  1.00270787 21388
COSMOS 2547 [GLONASS-K] 
1 46805U 20075A   26177.32991645  .00000106  00000+0  00000+0 0  9994
2 46805  64.5999 192.1702 0009406 239.7382 120.2220  2.13100201 44100
NAVSTAR 80 (USA 309)    
1 46826U 20078A   26177.24606883  .00000083  00000+0  00000+0 0  9992
2 46826  53.9789 210.4109 0073823 207.4122 155.8219  2.00565126 41695
NAVSTAR 81 (USA 319)    
1 48859U 21054A   26177.73280480 -.00000105  00000+0  00000+0 0  9996
2 48859  55.1697 332.0757 0025694 228.3266 312.6633  2.00568715 36941
QZS-1R (MICHIBIKI-1R)   
1 49336U 21096A   26177.61891060 -.00000312  00000+0  00000+0 0  9992
2 49336  37.4804  79.4425 0755635 271.9684 279.4688  1.00253032 17101
GSAT0223 (GALILEO 27)   
1 49809U 21116A   26174.44047914 -.00000098  00000+0  00000+0 0  9990
2 49809  57.1590 341.5051 0001600 183.5383 174.0725  1.70476308 28288
GSAT0224 (GALILEO 28)   
1 49810U 21116B   26176.61813146 -.00000097  00000+0  00000+0 0  9990
2 49810  57.1582 341.4456 0001373 160.1269 206.5880  1.70476480 28352
COSMOS 2557 [GLONASS-K] 
1 52984U 22075A   26177.49413639 -.00000086  00000+0  00000+0 0  9999
2 52984  64.2926 314.1567 0010303 273.4277  86.4434  2.13102255 30918
COSMOS 2559 [GLONASS-K] 
1 54031U 22130A   26177.31378409 -.00000086  00000+0  00000+0 0  9992
2 54031  64.2654 314.2468 0012740 178.9915 181.0006  2.13101803 28885
COSMOS 2564 [GLONASS-M] 
1 54377U 22161A   26177.15703373  .00000107  00000+0  00000+0 0  9996
2 54377  64.7425 192.4139 0012256 225.0447 134.9097  2.13102114 27822
NAVSTAR 82 (USA 343)    
1 55268U 23009A   26176.93387399  .00000044  00000+0  00000+0 0  9999
2 55268  55.1240 148.1751 0006264 317.1527  45.3707  2.00571086 25424
BEIDOU-3 G4             
1 56564U 23066A   26177.97855154 -.00000269  00000+0  00000+0 0  9996
2 56564   0.4758 334.0149 0004817 175.4488 257.9658  1.00271118 11491
NVS-01 (IRNSS-1J)       
1 56759U 23076A   26177.90517286 -.00000321  00000+0  00000+0 0  9996
2 56759   2.1434 243.9016 0002814  12.6328 113.8931  1.00274839 11215
COSMOS 2569 [GLONASS-K2]
1 57517U 23114A   26177.63859439 -.00000058  00000+0  00000+0 0  9998
2 57517  65.3074  72.3017 0010334 296.6235  63.3113  2.13103859 22469
BEIDOU-3 M28            
1 58654U 23207A   26176.89061017 -.00000090  00000+0  00000+0 0  9994
2 58654  55.7603  62.0093 0003002 352.5208   7.5157  1.86229879 17001
BEIDOU-3 M26            
1 58655U 23207B   26177.22506740 -.00000088  00000+0  00000+0 0  9997
2 58655  55.7629  61.9846 0002695 322.2397  37.7837  1.86229867 16998
